IRIDIUM 7               
1 24793U 97020B   24256.58087595  .00001872  00000+0  64559-3 0  9998
2 24793  86.3923 293.2288 0002042  86.8416 273.3014 14.35419335432066
IRIDIUM 5               
1 24795U 97020D   24256.61457420  .00034284  00000+0  31413-2 0  9997
2 24795  86.3935 211.1500 0121450  52.5977 308.6230 14.89243359444070
IRIDIUM 4               
1 24796U 97020E   24256.60101177  .00001770  00000+0  59879-3 0  9993
2 24796  86.3914 290.2776 0002273  88.4369 271.7088 14.36344883432619
IRIDIUM 914             
1 24836U 97030A   24256.60511352  .00002193  00000+0  68714-3 0  9997
2 24836  86.3909 299.7122 0003779  76.4790 283.6830 14.40240936567169
IRIDIUM 16              
1 24841U 97030F   24256.56996412  .00002328  00000+0  76181-3 0  9999
2 24841  86.4055 321.9392 0000600 176.1372 183.9831 14.38138985427096
IRIDIUM 911             
1 24842U 97030G   24256.59594865  .00003643  00000+0  99904-3 0  9998
2 24842  86.4481 320.9761 0012357 308.3896  51.6196 14.46851452434937
IRIDIUM 17              
1 24870U 97034B   24256.52462140  .00002773  00000+0  92514-3 0  9999
2 24870  86.4019 351.5187 0002155 138.2213 221.9150 14.37241933423695
IRIDIUM 920             
1 24871U 97034C   24256.58599448  .00002320  00000+0  71672-3 0  9998
2 24871  86.4013 331.3772 0009410 279.1988  80.8147 14.40944957426591
